[{"OBJECT_NAME":"VSP RF A1","OBJECT_ID":"2024-043AP","EPOCH":"2026-03-07T00:44:15.345024","MEAN_MOTION":15.26179596,"ECCENTRICITY":0.00094313,"INCLINATION":97.5247,"RA_OF_ASC_NODE":201.5379,"ARG_OF_PERICENTER":234.6315,"MEAN_ANOMALY":125.4042,"EPHEMERIS_TYPE":0,"CLASSIFICATION_TYPE":"U","NORAD_CAT_ID":59135,"ELEMENT_SET_NO":999,"REV_AT_EPOCH":11140,"BSTAR":2.5198753e-5,"MEAN_MOTION_DOT":5.77e-6,"MEAN_MOTION_DDOT":0},{"OBJECT_NAME":"CZ-2C DEB","OBJECT_ID":"2018-056F","EPOCH":"2026-03-09T10:57:26.102304","MEAN_MOTION":15.27739248,"ECCENTRICITY":0.00119172,"INCLINATION":98.1188,"RA_OF_ASC_NODE":250.032,"ARG_OF_PERICENTER":4.6998,"MEAN_ANOMALY":355.4349,"EPHEMERIS_TYPE":0,"CLASSIFICATION_TYPE":"U","NORAD_CAT_ID":43534,"ELEMENT_SET_NO":999,"REV_AT_EPOCH":41855,"BSTAR":0.00085537155,"MEAN_MOTION_DOT":0.00023193,"MEAN_MOTION_DDOT":0}]
